[{"OBJECT_NAME":"STARLINK-36092","OBJECT_ID":"2025-281X","EPOCH":"2026-03-09T04:05:46.028832","MEAN_MOTION":15.27588836,"ECCENTRICITY":0.00011836,"INCLINATION":43.0018,"RA_OF_ASC_NODE":346.622,"ARG_OF_PERICENTER":269.248,"MEAN_ANOMALY":90.8236,"EPHEMERIS_TYPE":0,"CLASSIFICATION_TYPE":"U","NORAD_CAT_ID":66869,"ELEMENT_SET_NO":999,"REV_AT_EPOCH":1609,"BSTAR":0.00099106451,"MEAN_MOTION_DOT":0.00027117,"MEAN_MOTION_DDOT":0},{"OBJECT_NAME":"TRANSPORTER-1 OBJECT M","OBJECT_ID":"2021-006M","EPOCH":"2026-03-09T22:05:37.843296","MEAN_MOTION":15.3227845,"ECCENTRICITY":0.00102759,"INCLINATION":97.2377,"RA_OF_ASC_NODE":116.7915,"ARG_OF_PERICENTER":187.5492,"MEAN_ANOMALY":172.5597,"EPHEMERIS_TYPE":0,"CLASSIFICATION_TYPE":"U","NORAD_CAT_ID":47424,"ELEMENT_SET_NO":999,"REV_AT_EPOCH":28439,"BSTAR":0.00023985652,"MEAN_MOTION_DOT":7.411e-5,"MEAN_MOTION_DDOT":0}]
